{
  "type": "FeatureCollection",
  "features": [
    {
      "type": "Feature",
      "properties": {
        "norad_id": 37238,
        "name": "INTELSAT 17 (IS-17)",
        "group": "intelsat",
        "lat": -0.02831067615410523,
        "lon": -133.21756133513657,
        "alt_km": 35776.707123988104,
        "timestamp": "2025-12-07T05:38:09.575798+00:00",
        "meta_object_name": "INTELSAT 17 (IS-17)",
        "meta_object_id": "2010-065B",
        "meta_epoch": "2025-12-06T12:16:05.108736",
        "meta_mean_motion": 1.00271623,
        "meta_eccentricity": 0.00024654,
        "meta_inclination": 0.0089,
        "meta_ra_of_asc_node": 303.9749,
        "meta_arg_of_pericenter": 308.7158,
        "meta_mean_anomaly": 72.8813,
        "meta_ephemeris_type": 0,
        "meta_classification_type": "U",
        "meta_norad_cat_id": 37238,
        "meta_element_set_no": 999,
        "meta_rev_at_epoch": 5131,
        "meta_bstar": 0,
        "meta_mean_motion_dot": 5e-08,
        "meta_mean_motion_ddot": 0,
        "tle_line1": "1 37238U 10065B   25340.51117024  .00000005  00000+0  00000+0 0  9993",
        "tle_line2": "2 37238   0.0089 303.9749 0002465 308.7158  72.8813  1.00271623 51317"
      },
      "geometry": {
        "type": "Point",
        "coordinates": [
          -133.21756133513657,
          -0.02831067615410523
        ]
      }
    },
    {
      "type": "Feature",
      "properties": {
        "norad_id": 37392,
        "name": "INTELSAT 28 (IS-28)",
        "group": "intelsat",
        "lat": 0.9215335056078366,
        "lon": 129.0442877969739,
        "alt_km": 35798.31478095111,
        "timestamp": "2025-12-07T05:38:09.575810+00:00",
        "meta_object_name": "INTELSAT 28 (IS-28)",
        "meta_object_id": "2011-016A",
        "meta_epoch": "2025-12-06T10:05:25.124352",
        "meta_mean_motion": 1.00270598,
        "meta_eccentricity": 0.00041639,
        "meta_inclination": 1.3075,
        "meta_ra_of_asc_node": 85.1332,
        "meta_arg_of_pericenter": 176.629,
        "meta_mean_anomaly": 293.3475,
        "meta_ephemeris_type": 0,
        "meta_classification_type": "U",
        "meta_norad_cat_id": 37392,
        "meta_element_set_no": 999,
        "meta_rev_at_epoch": 5135,
        "meta_bstar": 0,
        "meta_mean_motion_dot": -2.18e-06,
        "meta_mean_motion_ddot": 0,
        "tle_line1": "1 37392U 11016A   25340.42042968 -.00000218  00000+0  00000+0 0  9992",
        "tle_line2": "2 37392   1.3075  85.1332 0004163 176.6290 293.3475  1.00270598 51358"
      },
      "geometry": {
        "type": "Point",
        "coordinates": [
          129.0442877969739,
          0.9215335056078366
        ]
      }
    },
    {
      "type": "Feature",
      "properties": {
        "norad_id": 37834,
        "name": "INTELSAT 18 (IS-18)",
        "group": "intelsat",
        "lat": 0.00838509555816937,
        "lon": -19.182296444472062,
        "alt_km": 35784.40352562652,
        "timestamp": "2025-12-07T05:38:09.575822+00:00",
        "meta_object_name": "INTELSAT 18 (IS-18)",
        "meta_object_id": "2011-056A",
        "meta_epoch": "2025-12-06T14:34:38.434656",
        "meta_mean_motion": 1.00271718,
        "meta_eccentricity": 0.00021478,
        "meta_inclination": 0.0165,
        "meta_ra_of_asc_node": 323.2539,
        "meta_arg_of_pericenter": 298.0246,
        "meta_mean_anomaly": 213.0255,
        "meta_ephemeris_type": 0,
        "meta_classification_type": "U",
        "meta_norad_cat_id": 37834,
        "meta_element_set_no": 999,
        "meta_rev_at_epoch": 5188,
        "meta_bstar": 0,
        "meta_mean_motion_dot": 6e-07,
        "meta_mean_motion_ddot": 0,
        "tle_line1": "1 37834U 11056A   25340.60738929  .00000060  00000+0  00000+0 0  9990",
        "tle_line2": "2 37834   0.0165 323.2539 0002147 298.0246 213.0255  1.00271718 51888"
      },
      "geometry": {
        "type": "Point",
        "coordinates": [
          -19.182296444472062,
          0.00838509555816937
        ]
      }
    },
    {
      "type": "Feature",
      "properties": {
        "norad_id": 38098,
        "name": "INTELSAT 22 (IS-22)",
        "group": "intelsat",
        "lat": -0.017428642589058945,
        "lon": -127.11109467323048,
        "alt_km": 35780.03167275827,
        "timestamp": "2025-12-07T05:38:09.575834+00:00",
        "meta_object_name": "INTELSAT 22 (IS-22)",
        "meta_object_id": "2012-011A",
        "meta_epoch": "2025-12-06T12:17:49.942176",
        "meta_mean_motion": 1.00271093,
        "meta_eccentricity": 0.0001762,
        "meta_inclination": 0.0097,
        "meta_ra_of_asc_node": 36.1141,
        "meta_arg_of_pericenter": 230.1829,
        "meta_mean_anomaly": 65.8196,
        "meta_ephemeris_type": 0,
        "meta_classification_type": "U",
        "meta_norad_cat_id": 38098,
        "meta_element_set_no": 999,
        "meta_rev_at_epoch": 525,
        "meta_bstar": 0,
        "meta_mean_motion_dot": -5.2e-07,
        "meta_mean_motion_ddot": 0,
        "tle_line1": "1 38098U 12011A   25340.51238359 -.00000052  00000+0  00000+0 0  9999",
        "tle_line2": "2 38098   0.0097  36.1141 0001762 230.1829  65.8196  1.00271093  5253"
      },
      "geometry": {
        "type": "Point",
        "coordinates": [
          -127.11109467323048,
          -0.017428642589058945
        ]
      }
    },
    {
      "type": "Feature",
      "properties": {
        "norad_id": 38356,
        "name": "INTELSAT 19 (IS-19)",
        "group": "intelsat",
        "lat": -0.013500081403872832,
        "lon": -33.16913990255616,
        "alt_km": 35779.973006888904,
        "timestamp": "2025-12-07T05:38:09.575847+00:00",
        "meta_object_name": "INTELSAT 19 (IS-19)",
        "meta_object_id": "2012-030A",
        "meta_epoch": "2025-12-06T12:36:51.616224",
        "meta_mean_motion": 1.00270226,
        "meta_eccentricity": 0.00035412,
        "meta_inclination": 0.0102,
        "meta_ra_of_asc_node": 0.7713,
        "meta_arg_of_pericenter": 261.9134,
        "meta_mean_anomaly": 168.0982,
        "meta_ephemeris_type": 0,
        "meta_classification_type": "U",
        "meta_norad_cat_id": 38356,
        "meta_element_set_no": 999,
        "meta_rev_at_epoch": 4851,
        "meta_bstar": 0,
        "meta_mean_motion_dot": -5e-07,
        "meta_mean_motion_ddot": 0,
        "tle_line1": "1 38356U 12030A   25340.52559741 -.00000050  00000+0  00000+0 0  9997",
        "tle_line2": "2 38356   0.0102   0.7713 0003541 261.9134 168.0982  1.00270226 48519"
      },
      "geometry": {
        "type": "Point",
        "coordinates": [
          -33.16913990255616,
          -0.013500081403872832
        ]
      }
    },
    {
      "type": "Feature",
      "properties": {
        "norad_id": 38740,
        "name": "INTELSAT 20 (IS-20)",
        "group": "intelsat",
        "lat": -0.004940798487870972,
        "lon": -130.67160013445798,
        "alt_km": 35778.094061423515,
        "timestamp": "2025-12-07T05:38:09.575858+00:00",
        "meta_object_name": "INTELSAT 20 (IS-20)",
        "meta_object_id": "2012-043A",
        "meta_epoch": "2025-12-06T12:16:50.036736",
        "meta_mean_motion": 1.00270942,
        "meta_eccentricity": 0.00027623,
        "meta_inclination": 0.0079,
        "meta_ra_of_asc_node": 76.3857,
        "meta_arg_of_pericenter": 107.7543,
        "meta_mean_anomaly": 144.1327,
        "meta_ephemeris_type": 0,
        "meta_classification_type": "U",
        "meta_norad_cat_id": 38740,
        "meta_element_set_no": 999,
        "meta_rev_at_epoch": 4881,
        "meta_bstar": 0,
        "meta_mean_motion_dot": -1.8e-07,
        "meta_mean_motion_ddot": 0,
        "tle_line1": "1 38740U 12043A   25340.51169024 -.00000018  00000+0  00000+0 0  9992",
        "tle_line2": "2 38740   0.0079  76.3857 0002762 107.7543 144.1327  1.00270942 48818"
      },
      "geometry": {
        "type": "Point",
        "coordinates": [
          -130.67160013445798,
          -0.004940798487870972
        ]
      }
    },
    {
      "type": "Feature",
      "properties": {
        "norad_id": 38749,
        "name": "INTELSAT 21 (IS-21)",
        "group": "intelsat",
        "lat": 0.03569383967362446,
        "lon": 102.78431366277576,
        "alt_km": 35794.47007249821,
        "timestamp": "2025-12-07T05:38:09.575870+00:00",
        "meta_object_name": "INTELSAT 21 (IS-21)",
        "meta_object_id": "2012-045A",
        "meta_epoch": "2025-12-06T11:40:38.504064",
        "meta_mean_motion": 1.00271258,
        "meta_eccentricity": 0.0002263,
        "meta_inclination": 0.0166,
        "meta_ra_of_asc_node": 347.1755,
        "meta_arg_of_pericenter": 263.8521,
        "meta_mean_anomaly": 301.664,
        "meta_ephemeris_type": 0,
        "meta_classification_type": "U",
        "meta_norad_cat_id": 38749,
        "meta_element_set_no": 999,
        "meta_rev_at_epoch": 4859,
        "meta_bstar": 0,
        "meta_mean_motion_dot": -2.78e-06,
        "meta_mean_motion_ddot": 0,
        "tle_line1": "1 38749U 12045A   25340.48655676 -.00000278  00000+0  00000+0 0  9990",
        "tle_line2": "2 38749   0.0166 347.1755 0002263 263.8521 301.6640  1.00271258 48590"
      },
      "geometry": {
        "type": "Point",
        "coordinates": [
          102.78431366277576,
          0.03569383967362446
        ]
      }
    }
  ]
}